{
    "links": {
        "self": "http://www.neowsapp.com/rest/v1/neo/3879548?api_key=iIulBulltgU6a56xZRHN4H3l9WmuAYTsLGpBGhQ2"
    },
    "id": "3879548",
    "neo_reference_id": "3879548",
    "name": "(2019 UP5)",
    "designation": "2019 UP5",
    "nasa_jpl_url": "http://ssd.jpl.nasa.gov/sbdb.cgi?sstr=3879548",
    "absolute_magnitude_h": 22.4,
    "estimated_diameter": {
        "kilometers": {
            "estimated_diameter_min": 0.0880146521,
            "estimated_diameter_max": 0.1968067451
        },
        "meters": {
            "estimated_diameter_min": 88.0146520901,
            "estimated_diameter_max": 196.8067450894
        },
        "miles": {
            "estimated_diameter_min": 0.0546897524,
            "estimated_diameter_max": 0.122290004
        },
        "feet": {
            "estimated_diameter_min": 288.7619911632,
            "estimated_diameter_max": 645.6914415591
        }
    },
    "is_potentially_hazardous_asteroid": false,
    "close_approach_data": [
        {
            "close_approach_date": "2009-10-18",
            "close_approach_date_full": "2009-Oct-18 05:35",
            "epoch_date_close_approach": 1255844100000,
            "relative_velocity": {
                "kilometers_per_second": "11.9984173051",
                "kilometers_per_hour": "43194.3022984",
                "miles_per_hour": "26839.259669803"
            },
            "miss_distance": {
                "astronomical": "0.1767983304",
                "lunar": "68.7745505256",
                "kilometers": "26448653.647396248",
                "miles": "16434431.3017863024"
            },
            "orbiting_body": "Earth"
        },
        {
            "close_approach_date": "2019-10-16",
            "close_approach_date_full": "2019-Oct-16 04:51",
            "epoch_date_close_approach": 1571201460000,
            "relative_velocity": {
                "kilometers_per_second": "11.2049150154",
                "kilometers_per_hour": "40337.6940554792",
                "miles_per_hour": "25064.2743979726"
            },
            "miss_distance": {
                "astronomical": "0.1519528046",
                "lunar": "59.1096409894",
                "kilometers": "22731815.908686202",
                "miles": "14124895.4255535076"
            },
            "orbiting_body": "Earth"
        },
        {
            "close_approach_date": "2029-10-22",
            "close_approach_date_full": "2029-Oct-22 02:18",
            "epoch_date_close_approach": 1887329880000,
            "relative_velocity": {
                "kilometers_per_second": "13.3030382813",
                "kilometers_per_hour": "47890.9378127898",
                "miles_per_hour": "29757.5663315082"
            },
            "miss_distance": {
                "astronomical": "0.2207751135",
                "lunar": "85.8815191515",
                "kilometers": "33027486.728608245",
                "miles": "20522328.620133981"
            },
            "orbiting_body": "Earth"
        },
        {
            "close_approach_date": "2196-08-30",
            "close_approach_date_full": "2196-Aug-30 12:34",
            "epoch_date_close_approach": 7152842040000,
            "relative_velocity": {
                "kilometers_per_second": "10.4143578312",
                "kilometers_per_hour": "37491.6881922628",
                "miles_per_hour": "23295.8770325757"
            },
            "miss_distance": {
                "astronomical": "0.2087523443",
                "lunar": "81.2046619327",
                "kilometers": "31228906.064786641",
                "miles": "19404742.4187960058"
            },
            "orbiting_body": "Earth"
        }
    ],
    "orbital_data": {
        "orbit_id": "7",
        "orbit_determination_date": "2019-12-30 05:11:29",
        "first_observation_date": "2019-10-21",
        "last_observation_date": "2019-11-23",
        "data_arc_in_days": 33,
        "observations_used": 33,
        "orbit_uncertainty": "7",
        "minimum_orbit_intersection": ".0755354",
        "jupiter_tisserand_invariant": "3.430",
        "epoch_osculation": "2459000.5",
        "eccentricity": ".5264699487695931",
        "semi_major_axis": "2.232670058867865",
        "inclination": "9.329478547347334",
        "ascending_node_longitude": "201.4656907588843",
        "orbital_period": "1218.527260043331",
        "perihelion_distance": "1.057236367356296",
        "perihelion_argument": "154.5966949244739",
        "aphelion_distance": "3.408103750379435",
        "perihelion_time": "2458755.467722499133",
        "mean_anomaly": "72.39199547917815",
        "mean_motion": ".2954386100374959",
        "equinox": "J2000",
        "orbit_class": {
            "orbit_class_type": "AMO",
            "orbit_class_description": "Near-Earth asteroid orbits similar to that of 1221 Amor",
            "orbit_class_range": "1.017 AU < q (perihelion) < 1.3 AU"
        }
    },
    "is_sentry_object": false
}